#dP2022 12 22  0  0  0.00000000      96 __u+U ITR14 FIT  IAC
## 2241 345600.00000000   900.00000000 59935 0.0000000000000
+  129   C01C02C03C04C05C06C07C08C09C10C11C12C13C14C16C19C20
+        C21C22C23C24C25C26C27C28C29C30C32C33C34C35C36C37C38
+        C39C40C41C42C43C44C45C46C60E01E02E03E04E05E07E08E09
+        E10E11E12E13E14E15E18E19E21E24E25E26E27E30E31E33E34
+        E36G01G02G03G04G05G06G07G08G09G10G11G12G13G14G15G16
+        G17G18G19G20G21G22G23G24G25G26G27G29G30G31G32J02J03
+        J04J07R01R02R03R04R05R06R07R08R09R10R11R12R13R14R15
+        R16R17R18R19R20R21R22R23R24R25  0  0  0  0  0  0  0
++        17 17 17 17 17  9 10 10  8  9  9  8  9  9  9  7  7
++         7  7  7  7  7  7  7  7  7  8  7  7  7  0  7  8  8
++         0  8  7  7  7  7  7  8 17  4  4  4  4  4  5  4  4
++         4  4  5  4  4  4  5  4  4  4  4  4  4  4  5  5  4
++         4  4  4  4  4  4  4  4  4  4  4  4  4  4  4  4  4
++         4  4  7  4  4  4  4  4  4  4  4  4  4  4  3  8  8
++         9 17  8  6  6  6  6 15  6  6  6 15  6  6  8  6  6
++         9  6  6  7  7  6  8 15  6  8  0  0  0  0  0  0  0
%c M  cc GPS ccc cccc cccc cccc cccc ccccc ccccc ccccc ccccc
%c cc cc ccc ccc cccc cccc cccc cccc ccccc ccccc ccccc ccccc
%f  0.0000000  0.000000000  0.00000000000  0.000000000000000
%f  0.0000000  0.000000000  0.00000000000  0.000000000000000
%i    0    0    0    0      0      0      0      0         0
%i    0    0    0    0      0      0      0      0         0
/* INFORMATION & ANALYSIS CENTER (IAC)            RAPID DATA
/* S/V CLOCKS ARE ALIGNED TO GNSS TIME                      
/* G:C1WC2W R:C1PC2P E:C1XC5X C:C2IC6I J:C1CC2S             
/* PCV:IGS20_2239 OL/AL:FES2004  NONE     YN ORB:CoN CLK:CoN
*  2022 12 22 22 30  0.00000000
PC01 -34295.353920  24481.048496    699.700198    926.623490
PC02   4300.162770  41962.055125    976.474289    109.610527
PC03 -14862.293200  39456.438094   1247.411686    -24.711640
PC04 -39578.083401  14469.368522     -2.255478      2.408024
PC05  21846.660338  36052.562891   1239.290776    -22.384337
PC06 -11230.737158  40783.529111   -224.923893    213.879256
PC07  -1681.229645  30179.502688 -29322.502484    123.249139
PC08 -16628.876172  23142.946461  31022.174809    524.536687
PC09  -7777.917948  40976.096568  -7482.968323   -776.624096
PC10   4428.454842  31892.179750 -26679.095695     46.572378
PC11 -12985.241932  19425.144630 -15164.527155   -220.655871
PC12 -15500.631534    358.354588 -23155.814446    359.291082
PC13  -8891.391694  24411.382353  33289.652529    164.844461
PC14 -13351.952363   9447.542087  22631.072357    292.038014
PC16 -13899.481498  39760.970350   4300.553875     96.691425
PC19   4004.658814 -16079.430794 -22433.727363   -901.621106
PC20  19224.241714  -2766.746663 -20021.256865    796.047754
PC21 -23975.112623 -13274.609499   5317.998027   -923.576905
PC22 -14230.738519 -20793.718098 -12016.322686   -725.672747
PC23   4284.034470  15855.565919 -22562.639398   -871.025023
PC24 -26199.697491   9179.830235   2641.741406   -639.513508
PC25 -14307.122190  18547.955824 -15159.824345     43.685188
PC26 -22055.791256  -3145.343239  16764.102609    -53.655651
PC27  14167.250131   9640.620824  22011.389896     70.272754
PC28   5110.503253  24749.890122  11840.853767     50.316019
PC29   6929.024828 -26220.126335   6569.632995     57.336388
PC30  15318.805230 -11166.199545  20468.839293      1.241433
PC32  24049.666804  13160.105486  -5195.162818   -673.859143
PC33  -4060.318223  16061.210318  22456.966830   -890.051544
PC34 -15112.746316  12466.592208 -19888.316732     67.030526
PC35      0.000000      0.000000      0.000000 999999.999999
PC36  15359.783742 -18113.155022  14681.446474   -748.278541
PC37  21140.943739   4663.463114 -17618.194214   -872.191463
PC38 -22831.026921  24737.253778  25318.137756     46.815101
PC39      0.000000      0.000000      0.000000 999999.999999
PC40  -6189.260030  24766.530309 -33529.285810    -10.791279
PC41  13760.232393  20812.539923  12553.009992   -409.736666
PC42 -20034.580792   1764.660734  19392.143119   -903.042543
PC43  -7509.255170  25886.615047  -7279.215683     31.491567
PC44 -14604.106531  -9307.181381 -21883.324608    153.539775
PC45  -4612.687803 -15597.591407  22670.984258    -38.071610
PC46  25918.533418 -10371.054914   -919.817393    -21.360846
PC60   7303.907469  41517.113324    811.838593     -0.650797
PE01   4013.616826 -16266.301105  24402.892259   -582.080161
PE02  -3601.304190  16336.360000 -24422.752797     10.179206
PE03   1882.443445  26902.717999  12187.112992   -632.462137
PE04 -14799.541535 -24960.786506   5825.039945    -19.892423
PE05 -12455.014045  13060.219491  23459.488480   -112.483505
PE07  19315.634332   8229.969586 -20864.807844     -9.285003
PE08  14800.806151  24968.727154  -5795.575013     -7.102452
PE09 -19236.354015  -8464.236836  20843.298185   -773.442978
PE10 -14332.197609  -7519.408963 -24782.783375   -499.707722
PE11 -20055.950203   3266.838342 -21529.453659    123.550884
PE12  -7015.516431 -16197.807135 -23753.617387   -348.064813
PE13  19636.571294  -2396.225912  22027.080507    430.273347
PE14 -18731.586726   6342.543463 -23664.621672     92.148723
PE15   6723.247307  16403.593339  23715.884285    699.161946
PE18   8418.312412 -19806.922377  15575.760149   -597.044959
PE19    186.350990 -25853.092842 -14405.888614  -3676.249160
PE21  22303.351049  -8929.824972  17297.750402   -501.890244
PE24 -29176.493778  -4770.645752   1060.554013  -1016.502256
PE25 -22522.692480   8752.318700 -17083.194800   -595.526984
PE26  20748.432932 -20055.731158   6614.684194  -1873.551694
PE27  29328.301874   4074.575956   -194.096680   -469.598736
PE30  18311.733894  14914.818522 -17868.498615  -1099.585332
PE31 -18997.313789 -14559.267299  17413.825630   -511.356024
PE33  10082.697500 -25390.549758 -11379.665705   -455.256732
PE34  -9891.163165  25393.056990  11544.265580    -20.987376
PE36 -20900.983613  19597.566452  -7434.839996   -479.314233
PG01  12795.954798 -21750.517357  -8001.962676    234.142327
PG02  -8691.245060  23293.086567  10269.479224   -631.596494
PG03   7655.137672 -13394.966960 -21729.570105   -375.021980
PG04   2383.313198 -23159.514399 -12680.867098    -63.480386
PG05 -21137.974819   6802.258847  14487.782101   -109.099431
PG06 -16106.144497  -2692.307177 -20895.593156    545.323919
PG07   -544.010588 -19245.292747  18508.371558    270.504288
PG08   9617.248764 -14436.404319  19956.984660    -99.950012
PG09  -7157.271921 -25432.475608  -2542.876155   -249.115965
PG10  21887.742063  11515.711661  10266.625976    -17.248024
PG11 -21340.147087   8517.968445 -13281.876624    -62.377026
PG12  -9666.723026  12680.505488 -21499.279189   -319.116848
PG13 -13827.276724   6503.382972  21529.125595    446.563473
PG14 -19789.651532 -13389.297970  11731.807386    -63.535342
PG15  -8006.060957  15961.713245  19129.596702     -1.820261
PG16  23992.137846  -1121.894400  11549.458156   -525.670943
PG17 -12553.603970 -20884.274834 -10020.902285    687.931023
PG18   2072.919114  17590.223305  19749.219779    -69.416058
PG19 -15502.086121 -10993.955833 -18892.778529    254.081915
PG20 -26221.954513   1264.495411   3168.128461    461.847734
PG21  16911.883025 -19837.873807   2366.871197    153.178041
PG22  15861.290706   7762.790189 -19469.845564    390.237172
PG23  12376.585384  14839.396728  18283.656049      0.598648
PG24 -13755.430606  22277.818739  -3123.865992      3.586375
PG25   2038.807755  15905.783085 -21511.159768    404.508760
PG26  26436.281311   4045.843396   -442.464702    238.953308
PG27  14926.916109  -2203.860494  21659.404136    146.223953
PG29   3292.824277  25911.527900  -4621.396377   -575.781887
PG30 -11453.637306 -10900.834265  21427.297504   -534.914186
PG31  17846.431424   1533.521105 -19913.819166   -204.080980
PG32  15278.577747  17921.923752 -12321.564064   -338.868942
PJ02 -31524.258423  15001.574680 -19049.824344     -0.379507
PJ03 -22524.059144  33468.050132  -7878.324622     -7.264857
PJ04 -26799.538666  26337.243437  25226.226041    116.007425
PJ07 -25381.197751  33669.683105    -22.446647     -0.021832
PR01 -15670.257894 -19496.207735  -5020.893400     19.994637
PR02 -18604.540058 -10901.537256  13609.119708    -23.376415
PR03 -10764.314641   4224.063154  22771.305037     69.545691
PR04   2942.655086  16494.089742  19265.929226    169.602718
PR05  14960.905532  20011.872003   5222.148859    104.981609
PR06  18878.657587   9423.250029 -14368.418609    -86.589604
PR07  10283.860972  -4764.548888 -22820.826827     46.593971
PR08  -3094.668789 -16590.918958 -19058.640321    -68.655833
PR09  23495.166621   -996.493979  -9775.945030     94.473766
PR10  23332.909404  -8618.498921   5825.646416    -88.923466
PR11   9765.763081 -12225.732183  20148.262825     12.854979
PR12 -10533.443684  -8215.352586  21746.604980     23.809416
PR13 -22848.571799     52.960960  11314.797795    -30.206695
PR14 -22594.848008   9173.388188  -7496.962789     24.115179
PR15  -8793.448025  12208.157023 -20583.120016     92.180713
PR16  10221.151279   8117.315574 -21905.715326      8.992773
PR17 -12353.094715  16375.938685 -15120.536926    589.250332
PR18  -7565.598761  24379.371906    696.731535     58.113608
PR19   -117.060306  20502.200405  15180.049342   -215.527292
PR20  10151.407893   2329.931262  23298.171373    -84.477450
PR21  12207.463865 -17636.238677  13834.170417   -359.586156
PR22   8109.086234 -24134.385627  -1420.742314 999999.999999
PR23  -3118.066270 -17125.567216 -18644.632033    -66.507416
PR24 -10872.281942  -1436.365980 -23005.511916    134.560519
PR25  13378.277943 -15394.732215  15342.963110     49.591466
EOF
